H1 CPF 01  gfz 2021 04 25 12  6152 tandemx   
H2 1003001  6202 36605    2021 04 25 12 59 42 2021 04 30 00 00 42   120 1 1  0 0 0
H9
10 0 59330  10062.000000  0    3465934.026   4638649.670   3722761.026
10 0 59330  10182.000000  0    3882575.115   4870950.275   2933858.770
10 0 59330  10302.000000  0    4234594.372   5011357.591   2093294.901
10 0 59330  10422.000000  0    4514217.475   5058614.742   1215869.890
10 0 59330  10542.000000  0    4714942.782   5013234.115    317038.228
10 0 59330  10662.000000  0    4831689.712   4877466.653   -587373.911
10 0 59330  10782.000000  0    4860916.374   4655232.767  -1481456.304
10 0 59330  10902.000000  0    4800707.637   4352021.087  -2349501.785
10 0 59330  11022.000000  0    4650830.438   3974757.148  -3176288.741
10 0 59330  11142.000000  0    4412754.482   3531644.757  -3947352.248
10 0 59330  11262.000000  0    4089637.829   3031984.905  -4649237.520
10 0 59330  11382.000000  0    3686280.283   2485976.862  -5269731.073
10 0 59330  11502.000000  0    3209045.759   1904506.770  -5798066.650
10 0 59330  11622.000000  0    2665754.725   1298928.640  -6225102.537
10 0 59330  11742.000000  0    2065550.272    680842.645  -6543467.975
10 0 59330  11862.000000  0    1418741.915     61875.627  -6747678.086
10 0 59330  11982.000000  0     736629.760   -546533.220  -6834219.944
10 0 59330  12102.000000  0      31308.410  -1133339.640  -6801606.229
10 0 59330  12222.000000  0    -684542.376  -1688089.046  -6650396.277
10 0 59330  12342.000000  0   -1397879.490  -2201097.580  -6383188.481
10 0 59330  12462.000000  0   -2095528.858  -2663618.656  -6004580.803
10 0 59330  12582.000000  0   -2764423.209  -3067990.657  -5521099.632
10 0 59330  12702.000000  0   -3391843.671  -3407765.217  -4941099.442
10 0 59330  12822.000000  0   -3965662.539  -3677814.234  -4274630.065
10 0 59330  12942.000000  0   -4474580.220  -3874411.434  -3533272.705
10 0 59330  13062.000000  0   -4908352.649  -3995287.729  -2729947.534
10 0 59330  13182.000000  0   -5258004.041  -4039658.564  -1878693.665
10 0 59330  13302.000000  0   -5516019.019  -4008221.363   -994425.177
10 0 59330  13422.000000  0   -5676509.408  -3903123.143    -92667.819
10 0 59330  13542.000000  0   -5735351.185  -3727898.567    810718.830
10 0 59330  13662.000000  0   -5690287.269  -3487379.733   1699829.128
10 0 59330  13782.000000  0   -5540991.455  -3187578.049   2559001.495
10 0 59330  13902.000000  0   -5289093.024  -2835542.596   3373102.470
10 0 59330  14022.000000  0   -4938162.171  -2439199.589   4127800.442
10 0 59330  14142.000000  0   -4493655.464  -2007174.999   4809823.015
10 0 59330  14262.000000  0   -3962823.819  -1548606.719   5407190.424
10 0 59330  14382.000000  0   -3354587.673  -1072951.756   5909423.617
10 0 59330  14502.000000  0   -2679380.456   -589790.823   6307725.597
10 0 59330  14622.000000  0   -1948962.134   -108634.207   6595130.639
10 0 59330  14742.000000  0   -1176208.790    361264.810   6766618.514
10 0 59330  14862.000000  0    -374883.795    811085.969   6819196.500
10 0 59330  14982.000000  0     440607.439   1232606.680   6751948.282
10 0 59330  15102.000000  0    1255475.653   1618352.112   6566049.103
10 0 59330  15222.000000  0    2054815.335   1961728.111   6264746.039
10 0 59330  15342.000000  0    2823876.559   2257134.002   5853304.799
10 0 59330  15462.000000  0    3548338.639   2500055.110   5338924.017
10 0 59330  15582.000000  0    4214580.336   2687132.921   4730614.846
10 0 59330  15702.000000  0    4809939.870   2816212.072   4039048.840
10 0 59330  15822.000000  0    5322963.701   2886363.083   3276376.480
10 0 59330  15942.000000  0    5743636.456   2897878.127   2456012.398
10 0 59330  16062.000000  0    6063582.335   2852241.460   1592398.584
10 0 59330  16182.000000  0    6276239.619   2752075.897    700745.751
10 0 59330  16302.000000  0    6376999.286   2601064.289   -203242.654
10 0 59330  16422.000000  0    6363303.550   2403848.092  -1103656.641
10 0 59330  16542.000000  0    6234702.101   2165906.312  -1984667.153
10 0 59330  16662.000000  0    5992869.280   1893420.313  -2830811.022
10 0 59330  16782.000000  0    5641577.134   1593124.284  -3627268.752
10 0 59330  16902.000000  0    5186627.019   1272146.638  -4360126.485
10 0 59330  17022.000000  0    4635740.907    937846.639  -5016617.433
10 0 59330  17142.000000  0    3998418.273    597651.699  -5585337.543
10 0 59330  17262.000000  0    3285762.758    258897.882  -6056434.701
10 0 59330  17382.000000  0    2510280.996    -71322.712  -6421769.106
10 0 59330  17502.000000  0    1685658.965   -386305.273  -6675041.855
10 0 59330  17622.000000  0     826521.410   -679863.628  -6811893.347
10 0 59330  17742.000000  0     -51825.316   -946447.702  -6829970.932
10 0 59330  17862.000000  0    -933660.400  -1181244.651  -6728963.317
10 0 59330  17982.000000  0   -1803122.647  -1380263.346  -6510605.970
10 0 59330  18102.000000  0   -2644489.721  -1540400.980  -6178654.434
10 0 59330  18222.000000  0   -3442455.737  -1659490.498  -5738825.755
10 0 59330  18342.000000  0   -4182406.258  -1736329.346  -5198711.802
10 0 59330  18462.000000  0   -4850688.003  -1770688.275  -4567659.922
10 0 59330  18582.000000  0   -5434865.146  -1763299.509  -3856622.194
10 0 59330  18702.000000  0   -5923959.044  -1715824.821  -3077975.470
10 0 59330  18822.000000  0   -6308665.459  -1630803.505  -2245312.341
10 0 59330  18942.000000  0   -6581543.155  -1511580.687  -1373206.889
10 0 59330  19062.000000  0   -6737169.356  -1362217.912   -476958.856
10 0 59330  19182.000000  0   -6772257.345  -1187387.314    427679.376
10 0 59330  19302.000000  0   -6685731.992   -992251.693   1324786.980
10 0 59330  19422.000000  0   -6478760.615   -782334.570   2198563.781
10 0 59330  19542.000000  0   -6154738.571   -563382.951   3033617.579
10 0 59330  19662.000000  0   -5719229.943   -341226.065   3815243.602
10 0 59330  19782.000000  0   -5179863.828   -121634.016   4529689.705
10 0 59330  19902.000000  0   -4546190.194     89819.267   5164400.275
10 0 59330  20022.000000  0   -3829501.284    287886.825   5708235.476
10 0 59330  20142.000000  0   -3042621.388    467769.547   6151664.241
10 0 59330  20262.000000  0   -2199668.858    625223.971   6486926.208
10 0 59330  20382.000000  0   -1315797.043    756655.471   6708162.156
10 0 59330  20502.000000  0    -406917.833    859195.770   6811510.061
10 0 59330  20622.000000  0     510585.237    930762.436   6795167.359
10 0 59330  20742.000000  0    1420151.283    970100.009   6659420.200
10 0 59330  20862.000000  0    2305339.931    976802.380   6406638.909
10 0 59330  20982.000000  0    3150127.820    951315.402   6041239.621
10 0 59330  21102.000000  0    3939200.650    894919.942   5569612.194
10 0 59330  21222.000000  0    4658233.781    809695.934   5000013.417
10 0 59330  21342.000000  0    5294157.686    698467.170   4342429.744
10 0 59330  21462.000000  0    5835405.201    564728.727   3608407.567
10 0 59330  21582.000000  0    6272132.295    412558.762   2810851.800
10 0 59330  21702.000000  0    6596405.961    246515.563   1963797.778
10 0 59330  21822.000000  0    6802358.106     71521.731   1082162.093
10 0 59330  21942.000000  0    6886298.785   -107259.754    181473.158
10 0 59330  22062.000000  0    6846786.423   -284556.175   -722410.367
10 0 59330  22182.000000  0    6684651.839   -455118.678  -1613588.350
10 0 59330  22302.000000  0    6402976.470   -613855.015  -2476407.290
10 0 59330  22422.000000  0    6007025.264   -755958.245  -3295741.473
10 0 59330  22542.000000  0    5504137.358   -877028.212  -4057261.479
10 0 59330  22662.000000  0    4903577.229   -973182.251  -4747684.551
10 0 59330  22782.000000  0    4216351.789  -1041152.582  -5355001.656
10 0 59330  22902.000000  0    3454998.394  -1078369.518  -5868679.194
10 0 59330  23022.000000  0    2633347.652  -1083028.674  -6279831.776
10 0 59330  23142.000000  0    1766267.683  -1054139.496  -6581364.409
10 0 59330  23262.000000  0     869394.575   -991555.600  -6768083.675
10 0 59330  23382.000000  0     -41146.569   -895987.550  -6836778.096
10 0 59330  23502.000000  0    -949026.162   -768996.085  -6786266.822
10 0 59330  23622.000000  0   -1837995.791   -612967.249  -6617418.013
10 0 59330  23742.000000  0   -2692172.798   -431068.691  -6333134.952
10 0 59330  23862.000000  0   -3496317.098   -227188.763  -5938310.577
10 0 59330  23982.000000  0   -4236099.404     -5858.545  -5439753.714
10 0 59330  24102.000000  0   -4898357.862    227842.039  -4846082.334
10 0 59330  24222.000000  0   -5471336.056    468391.920  -4167586.621
10 0 59330  24342.000000  0   -5944901.022    709950.094  -3416061.986
10 0 59330  24462.000000  0   -6310734.029    946487.407  -2604612.093
10 0 59330  24582.000000  0   -6562489.486   1171925.882  -1747424.852
10 0 59330  24702.000000  0   -6695918.019   1380282.437   -859525.736
10 0 59330  24822.000000  0   -6708950.531   1565813.921     43489.842
10 0 59330  24942.000000  0   -6601736.332   1723158.103    945737.528
10 0 59330  25062.000000  0   -6376638.175   1847469.175   1831330.691
10 0 59330  25182.000000  0   -6038183.015   1934543.464   2684669.337
10 0 59330  25302.000000  0   -5592968.661   1980931.495   3490723.935
10 0 59330  25422.000000  0   -5049528.393   1984033.037   4235307.201
10 0 59330  25542.000000  0   -4418158.424   1942173.605   4905327.098
10 0 59330  25662.000000  0   -3710713.776   1854660.795   5489016.982
10 0 59330  25782.000000  0   -2940377.914   1721819.506   5976140.378
10 0 59330  25902.000000  0   -2121409.161   1545005.477   6358167.633
10 0 59330  26022.000000  0   -1268869.689   1326595.792   6628419.375
10 0 59330  26142.000000  0    -398344.697   1069957.491   6782176.035
10 0 59330  26262.000000  0     474342.779    779395.415   6816754.288
10 0 59330  26382.000000  0    1333418.506    460079.579   6731550.832
10 0 59330  26502.000000  0    2163440.897    117953.669   6528052.225
99
